     2.10           G: GLONASS NAV DATA                     RINEX VERSION / TYPE
teqc  2015Jun23                         20220512 01:25:41UTCPGM / RUN BY / DATE
Linux 2.4.21-27.ELsmp|Opteron|gcc -static|Linux x86_64|=+   COMMENT
  2022     5     1   -9.313225746155D-10                    CORR TO SYSTEM TIME
                                                            END OF HEADER
11 22  5  2 12 15  0.0 3.993231803179D-05-9.094947017729D-13 4.320000000000D+04
   -5.224190917969D+03-2.986174583435D+00-2.793967723846D-09 0.000000000000D+00
    9.705680664062D+03-1.006715774536D+00-9.313225746155D-10 0.000000000000D+00
   -2.299509814453D+04 2.521514892578D-01 9.313225746155D-10 0.000000000000D+00
 1 22  5  2 12 15  0.0 8.319504559040D-06 0.000000000000D+00 4.320000000000D+04
    6.822480468750D+03 2.451972961426D-01 1.862645149231D-09 0.000000000000D+00
    2.427128662109D+04 4.843511581421D-01-1.862645149231D-09 1.000000000000D+00
   -3.814891113281D+03 3.514258384705D+00 9.313225746155D-10 0.000000000000D+00
 8 22  5  2 12 15  0.0-6.489269435406D-05 0.000000000000D+00 4.320000000000D+04
   -1.872249023438D+03-1.487379074097D-01 9.313225746155D-10 0.000000000000D+00
    2.238478906250D+04-1.654230117798D+00-1.862645149231D-09 6.000000000000D+00
    1.217114257812D+04 3.032887458801D+00-9.313225746155D-10 0.000000000000D+00
12 22  5  2 12 15  0.0 1.823250204325D-05 0.000000000000D+00 4.320000000000D+04
    1.392992480469D+04-2.119362831116D+00 9.313225746155D-10 0.000000000000D+00
    1.335962695312D+04-8.629655838013D-01-9.313225746155D-10-1.000000000000D+00
   -1.666442529297D+04-2.458261489868D+00 2.793967723846D-09 0.000000000000D+00
21 22  5  2 12 15  0.0-2.979859709740D-04-3.637978807092D-12 4.320000000000D+04
   -2.065491357422D+04 7.098169326782D-01-3.725290298462D-09 0.000000000000D+00
    1.397246923828D+04-2.868928909302D-01-1.862645149231D-09 4.000000000000D+00
   -5.324567871094D+03-3.511075973511D+00-9.313225746155D-10 0.000000000000D+00
22 22  5  2 12 15  0.0-1.806048676372D-04-1.818989403546D-12 4.320000000000D+04
   -1.454051562500D+04-1.005842208862D+00-9.313225746155D-10 0.000000000000D+00
    1.801778173828D+04 1.111433029175D+00-1.862645149231D-09-3.000000000000D+00
    1.080294238281D+04-3.192568778992D+00-1.862645149231D-09 0.000000000000D+00
23 22  5  2 12 15  0.0-3.924407064915D-05-9.094947017729D-13 4.455000000000D+04
    2.932330078125D+03-2.411996841431D+00 2.793967723846D-09 0.000000000000D+00
    1.079178369141D+04 2.020557403564D+00-0.000000000000D+00 3.000000000000D+00
    2.291419726562D+04-6.417636871338D-01-9.313225746155D-10 0.000000000000D+00
 2 22  5  2 12 15  0.0 5.171736702323D-04 0.000000000000D+00 4.470000000000D+04
    1.143073632812D+04 5.528535842896D-01 0.000000000000D+00 0.000000000000D+00
    1.102251611328D+04 2.684937477112D+00-9.313225746155D-10-4.000000000000D+00
   -1.993418750000D+04 1.791671752930D+00 2.793967723846D-09 0.000000000000D+00
11 22  5  2 12 45  0.0 3.993045538664D-05-9.094947017729D-13 4.500000000000D+04
   -1.058714843750D+04-2.921401977539D+00-3.725290298462D-09 0.000000000000D+00
    8.322040527344D+03-5.257053375244D-01-9.313225746155D-10 0.000000000000D+00
   -2.165758496094D+04 1.224278450012D+00 0.000000000000D+00 0.000000000000D+00
 1 22  5  2 12 45  0.0 8.320435881615D-06 0.000000000000D+00 4.500000000000D+04
    7.098459960938D+03 2.197647094727D-02 9.313225746155D-10 0.000000000000D+00
    2.435699658203D+04-3.797645568848D-01-2.793967723846D-09 1.000000000000D+00
    2.576608398438D+03 3.541239738464D+00 0.000000000000D+00 0.000000000000D+00
 2 22  5  2 12 45  0.0 5.171746015549D-04 9.094947017729D-13 4.500000000000D+04
    1.265652197266D+04 7.748804092407D-01 0.000000000000D+00 0.000000000000D+00
    1.532226171875D+04 2.058746337891D+00-1.862645149231D-09-4.000000000000D+00
   -1.597876953125D+04 2.574439048767D+00 1.862645149231D-09 0.000000000000D+00
 8 22  5  2 12 45  0.0-6.489176303148D-05 0.000000000000D+00 4.500000000000D+04
   -2.521627929688D+03-5.953979492188D-01 9.313225746155D-10 0.000000000000D+00
    1.883407128906D+04-2.251398086548D+00-1.862645149231D-09 6.000000000000D+00
    1.709204150391D+04 2.399594306946D+00-9.313225746155D-10 0.000000000000D+00
12 22  5  2 12 45  0.0 1.823250204325D-05 0.000000000000D+00 4.500000000000D+04
    9.542990234375D+03-2.720964431763D+00-0.000000000000D+00 0.000000000000D+00
    1.196812353516D+04-6.489601135254D-01-9.313225746155D-10-1.000000000000D+00
   -2.038706787109D+04-1.651040077209D+00 1.862645149231D-09 0.000000000000D+00
21 22  5  2 12 45  0.0-2.979915589094D-04-2.728484105319D-12 4.500000000000D+04
   -1.888829394531D+04 1.211814880371D+00-4.656612873077D-09 0.000000000000D+00
    1.282849218750D+04-9.997558593750D-01-9.313225746155D-10 4.000000000000D+00
   -1.135669384766D+04-3.147738456726D+00-9.313225746155D-10 0.000000000000D+00
22 22  5  2 12 45  0.0-1.806076616049D-04-9.094947017729D-13 4.500000000000D+04
   -1.566809423828D+04-2.613477706909D-01-1.862645149231D-09 0.000000000000D+00
    1.963531542969D+04 6.442632675171D-01-1.862645149231D-09-3.000000000000D+00
    4.714664550781D+03-3.528430938721D+00-1.862645149231D-09 0.000000000000D+00
23 22  5  2 12 45  0.0-3.924686461687D-05-9.094947017729D-13 4.509000000000D+04
   -9.627397460938D+02-1.887744903564D+00 9.313225746155D-10 0.000000000000D+00
    1.459571972656D+04 2.161638259888D+00-9.313225746155D-10 3.000000000000D+00
    2.088727294922D+04-1.595704078674D+00-1.862645149231D-09 0.000000000000D+00
23 22  5  2 13 15  0.0-3.924872726202D-05-9.094947017729D-13 4.680000000000D+04
   -3.794716796875D+03-1.249264717102D+00 0.000000000000D+00 0.000000000000D+00
    1.840202832031D+04 2.018182754517D+00-1.862645149231D-09 3.000000000000D+00
    1.724405908203D+04-2.425972938538D+00-1.862645149231D-09 0.000000000000D+00
 2 22  5  2 13 15  0.0 5.171764642000D-04 9.094947017729D-13 4.680000000000D+04
    1.408056640625D+04 7.653970718384D-01 0.000000000000D+00 0.000000000000D+00
    1.834243212891D+04 1.280644416809D+00-1.862645149231D-09-4.000000000000D+00
   -1.078673486328D+04 3.156863212585D+00 1.862645149231D-09 0.000000000000D+00
 1 22  5  2 13 15  0.0 8.320435881615D-06 0.000000000000D+00 4.680000000000D+04
    6.771889648438D+03-4.160490036011D-01 9.313225746155D-10 0.000000000000D+00
    2.297091308594D+04-1.133245468140D+00-2.793967723846D-09 1.000000000000D+00
    8.768711425781D+03 3.294173240662D+00-0.000000000000D+00 0.000000000000D+00
 8 22  5  2 13 15  0.0-6.489083170891D-05 0.000000000000D+00 4.680000000000D+04
   -4.068178222656D+03-1.128935813904D+00 0.000000000000D+00 0.000000000000D+00
    1.444002490234D+04-2.582864761353D+00-9.313225746155D-10 6.000000000000D+00
    2.069917187500D+04 1.582575798035D+00-1.862645149231D-09 0.000000000000D+00
11 22  5  2 13 15  0.0 3.992952406406D-05-9.094947017729D-13 4.680000000000D+04
   -1.555981982422D+04-2.555827140808D+00-4.656612873077D-09 0.000000000000D+00
    7.798104980469D+03-6.952953338623D-02 0.000000000000D+00 0.000000000000D+00
   -1.864480615234D+04 2.101471900940D+00-0.000000000000D+00 0.000000000000D+00
21 22  5  2 13 15  0.0-2.979971468449D-04-2.728484105319D-12 4.680000000000D+04
   -1.645344140625D+04 1.446936607361D+00-4.656612873077D-09 0.000000000000D+00
    1.035127685547D+04-1.749053955078D+00-0.000000000000D+00 4.000000000000D+00
   -1.650999755859D+04-2.540990829468D+00-0.000000000000D+00 0.000000000000D+00
22 22  5  2 13 15  0.0-1.806104555726D-04-9.094947017729D-13 4.680000000000D+04
   -1.556397558594D+04 3.463726043701D-01-3.725290298462D-09 0.000000000000D+00
    2.020641503906D+04-3.947353363037D-02-9.313225746155D-10-3.000000000000D+00
   -1.736130859375D+03-3.592855453491D+00-9.313225746155D-10 0.000000000000D+00
12 22  5  2 13 15  0.0 1.823250204325D-05-0.000000000000D+00 4.749000000000D+04
    4.281258300781D+03-3.079111099243D+00-1.862645149231D-09 0.000000000000D+00
    1.112347656250D+04-2.690963745117D-01-9.313225746155D-10-1.000000000000D+00
   -2.253099414062D+04-7.155332565308D-01 1.862645149231D-09 0.000000000000D+00
23 22  5  2 13 45  0.0-3.925152122974D-05-9.094947017729D-13 4.860000000000D+04
   -5.460499511719D+03-6.113042831421D-01-9.313225746155D-10 0.000000000000D+00
    2.168577050781D+04 1.583990097046D+00-9.313225746155D-10 3.000000000000D+00
    1.226678466797D+04-3.068374633789D+00-1.862645149231D-09 0.000000000000D+00
 2 22  5  2 13 45  0.0 5.171792581677D-04 9.094947017729D-13 4.860000000000D+04
    1.525739160156D+04 4.998559951782D-01 0.000000000000D+00 0.000000000000D+00
    1.990856787109D+04 4.626054763794D-01-2.793967723846D-09-4.000000000000D+00
   -4.761238769531D+03 3.494637489319D+00 9.313225746155D-10 0.000000000000D+00
 1 22  5  2 13 45  0.0 8.321367204189D-06 0.000000000000D+00 4.860000000000D+04
    5.512104003906D+03-1.000719070435D+00 9.313225746155D-10 0.000000000000D+00
    2.040050195312D+04-1.682581901550D+00-1.862645149231D-09 1.000000000000D+00
    1.428239306641D+04 2.792374610901D+00-9.313225746155D-10 0.000000000000D+00
11 22  5  2 13 45  0.0 3.992766141891D-05-9.094947017729D-13 4.860000000000D+04
   -1.963218652344D+04-1.931688308716D+00-4.656612873077D-09 0.000000000000D+00
    7.995430664062D+03 2.602920532227D-01 9.313225746155D-10 0.000000000000D+00
   -1.419016992188D+04 2.815950393677D+00-9.313225746155D-10 0.000000000000D+00
12 22  5  2 13 45  0.0 1.823250204325D-05-0.000000000000D+00 4.860000000000D+04
   -1.362823730469D+03-3.140467643738D+00-2.793967723846D-09 0.000000000000D+00
    1.104256005859D+04 1.823110580444D-01-0.000000000000D+00-1.000000000000D+00
   -2.292940820312D+04 2.757873535156D-01 9.313225746155D-10 0.000000000000D+00
21 22  5  2 13 45  0.0-2.980027347803D-04-2.728484105319D-12 4.860000000000D+04
   -1.384544238281D+04 1.406773567200D+00-4.656612873077D-09 0.000000000000D+00
    6.580411132812D+03-2.417802810669D+00 9.313225746155D-10 4.000000000000D+00
   -2.038620507812D+04-1.737995147705D+00-0.000000000000D+00 0.000000000000D+00
